[{"OBJECT_NAME":"IRIS","OBJECT_ID":"2013-033A","EPOCH":"2026-03-09T13:26:21.239520","MEAN_MOTION":14.85645982,"ECCENTRICITY":0.00232612,"INCLINATION":97.9395,"RA_OF_ASC_NODE":268.1167,"ARG_OF_PERICENTER":285.8728,"MEAN_ANOMALY":73.9923,"EPHEMERIS_TYPE":0,"CLASSIFICATION_TYPE":"U","NORAD_CAT_ID":39197,"ELEMENT_SET_NO":999,"REV_AT_EPOCH":68558,"BSTAR":0.00024024039,"MEAN_MOTION_DOT":2.035e-5,"MEAN_MOTION_DDOT":0},{"OBJECT_NAME":"SL-14 R\/B","OBJECT_ID":"1979-011B","EPOCH":"2026-03-09T13:55:54.072480","MEAN_MOTION":14.91907955,"ECCENTRICITY":0.0017409,"INCLINATION":82.5209,"RA_OF_ASC_NODE":96.6746,"ARG_OF_PERICENTER":60.8949,"MEAN_ANOMALY":299.4011,"EPHEMERIS_TYPE":0,"CLASSIFICATION_TYPE":"U","NORAD_CAT_ID":11267,"ELEMENT_SET_NO":999,"REV_AT_EPOCH":52876,"BSTAR":6.7656e-5,"MEAN_MOTION_DOT":7.11e-6,"MEAN_MOTION_DDOT":0}]
